0 IRIDIUM 33 DEB
1 34102U 97051DM  13282.72545699  .00003008  00000-0  15438-2 0  2914
2 34102 086.3936 163.7812 0137461 192.5595 228.0006 14.10326015238535
0 IRIDIUM 33 DEB
1 34102U 97051DM  13284.16397515  .00003665  00000-0  18820-2 0  2924
2 34102 086.3937 163.2025 0137590 187.9926 331.6757 14.10333686238734
0 IRIDIUM 33 DEB
1 34102U 97051DM  13285.77846448  .00003397  00000-0  17433-2 0  2938
2 34102 086.3941 162.5528 0137634 182.8665 248.8588 14.10344086238964
0 IRIDIUM 33 DEB
1 34102U 97051DM  13287.14286522  .00003588  00000-0  18413-2 0  2944
2 34102 086.3940 162.0040 0137757 178.5635 336.2874 14.10351558239156
0 IRIDIUM 33 DEB
1 34102U 97051DM  13288.41387852  .00005602  00000-0  28786-2 0  2957
2 34102 086.3937 161.4928 0137874 174.5689 309.5944 14.10363693239339
0 IRIDIUM 33 DEB
1 34102U 97051DM  13289.67725280  .00005650  00000-0  29022-2 0  2965
2 34102 086.3933 160.9845 0137989 170.6067 244.1613 14.10374763239518
0 IRIDIUM 33 DEB
1 34102U 97051DM  13291.18060959  .00004940  00000-0  25355-2 0  2976
2 34102 086.3927 160.3796 0138114 165.9099 317.2436 14.10388175239723
0 IRIDIUM 33 DEB
1 34102U 97051DM  13292.38732845  .00004936  00000-0  25325-2 0  2982
2 34102 086.3923 159.8939 0138231 162.1289 324.2536 14.10397426239897
0 IRIDIUM 33 DEB
1 34102U 97051DM  13293.65014422  .00005172  00000-0  26530-2 0  2990
2 34102 086.3921 159.3858 0138336 158.1943 256.1137 14.10408769240073
0 IRIDIUM 33 DEB
1 34102U 97051DM  13294.79988383  .00006030  00000-0  30935-2 0  3003
2 34102 086.3921 158.9233 0138408 154.6016 333.8928 14.10418581240239
0 IRIDIUM 33 DEB
1 34102U 97051DM  13296.14675631  .00005843  00000-0  29957-2 0  3017
2 34102 086.3923 158.3811 0138521 150.3726 332.6819 14.10431893240422
